H1 CPF 01  gfz 2021 10 29 12  8022 terrasarx 
H2 0702601  6201 31698    2021 10 29 12 59 42 2021 11 03 00 00 42   120 1 1  0 0 0
H9
10 0 59520  15822.000000  0   -6023075.457  -2962190.963  -1560516.151
10 0 59520  15942.000000  0   -6231444.400  -2862959.581   -668066.001
10 0 59520  16062.000000  0   -6328757.011  -2711039.131    236136.772
10 0 59520  16182.000000  0   -6312371.966  -2511024.850   1136181.295
10 0 59520  16302.000000  0   -6181744.903  -2268392.459   2016217.007
10 0 59520  16422.000000  0   -5938452.723  -1989364.076   2860742.507
10 0 59520  16542.000000  0   -5586176.300  -1680759.924   3654885.852
10 0 59520  16662.000000  0   -5130640.470  -1349839.435   4384674.184
10 0 59520  16782.000000  0   -4579511.285  -1004135.318   5037282.082
10 0 59520  16902.000000  0   -3942258.580   -651286.548   5601255.330
10 0 59520  17022.000000  0   -3229985.418   -298872.979   6066710.032
10 0 59520  17142.000000  0   -2455226.116     45745.546   6425501.708
10 0 59520  17262.000000  0   -1631718.520    375580.173   6671361.288
10 0 59520  17382.000000  0    -774156.414    684151.805   6799998.160
10 0 59520  17502.000000  0     102073.804    965616.771   6809169.900
10 0 59520  17622.000000  0     981168.487   1214876.429   6698718.485
10 0 59520  17742.000000  0    1847190.688   1427669.660   6470572.949
10 0 59520  17862.000000  0    2684358.039   1600645.912   6128717.510
10 0 59520  17982.000000  0    3477330.631   1731417.995   5679127.110
10 0 59520  18102.000000  0    4211495.030   1818593.857   5129668.308
10 0 59520  18222.000000  0    4873236.795   1861787.221   4489967.904
10 0 59520  18342.000000  0    5450200.724   1861607.493   3771251.697
10 0 59520  18462.000000  0    5931532.170   1819627.044   2986148.720
10 0 59520  18582.000000  0    6308088.494   1738327.475   2148469.358
10 0 59520  18702.000000  0    6572622.996   1621025.870   1272960.899
10 0 59520  18822.000000  0    6719931.104   1471782.380    375041.306
10 0 59520  18942.000000  0    6746956.815   1295292.204   -529479.512
10 0 59520  19062.000000  0    6652856.050   1096763.983  -1424687.877
10 0 59520  19182.000000  0    6439014.349    881786.757  -2294853.984
10 0 59520  19302.000000  0    6109021.290    656190.162  -3124715.051
10 0 59520  19422.000000  0    5668600.409    425902.367  -3899747.555
10 0 59520  19542.000000  0    5125497.733    196808.349  -4606422.836
10 0 59520  19662.000000  0    4489331.753    -25388.129  -5232439.586
10 0 59520  19782.000000  0    3771411.762   -235294.728  -5766930.202
10 0 59520  19902.000000  0    2984528.428   -427950.690  -6200640.648
10 0 59520  20022.000000  0    2142719.053   -598934.969  -6526080.326
10 0 59520  20142.000000  0    1261015.040   -744459.812  -6737639.091
10 0 59520  20262.000000  0     355175.736   -861449.209  -6831675.134
10 0 59520  20382.000000  0    -558589.642   -947599.595  -6806570.599
10 0 59520  20502.000000  0   -1463904.965  -1001423.156  -6662755.943
10 0 59520  20622.000000  0   -2344514.299  -1022272.944  -6402703.875
10 0 59520  20742.000000  0   -3184567.358  -1010349.315  -6030890.086
10 0 59520  20862.000000  0   -3968898.913   -966688.106  -5553725.150
10 0 59520  20982.000000  0   -4683302.812   -893130.410  -4979455.780
10 0 59520  21102.000000  0   -5314792.483   -792274.011  -4318033.269
10 0 59520  21222.000000  0   -5851843.713   -667407.929  -3580952.256
10 0 59520  21342.000000  0   -6284615.898   -522430.275  -2781059.788
10 0 59520  21462.000000  0   -6605144.566   -361750.829  -1932336.507
10 0 59520  21582.000000  0   -6807501.300   -190181.535  -1049654.493
10 0 59520  21702.000000  0   -6887916.750    -12815.366   -148513.167
10 0 59520  21822.000000  0   -6844858.170    165102.407    755239.699
10 0 59520  21942.000000  0   -6679064.253    338306.913   1645693.383
10 0 59520  22062.000000  0   -6393534.935    501646.985   2507163.513
10 0 59520  22182.000000  0   -5993474.809    650215.996   3324477.593
10 0 59520  22302.000000  0   -5486191.430    779476.882   4083249.823
10 0 59520  22422.000000  0   -4880952.413    885377.787   4770138.391
10 0 59520  22542.000000  0   -4188805.648    964455.489   5373080.957
10 0 59520  22662.000000  0   -3422368.095   1013924.449   5881504.032
10 0 59520  22782.000000  0   -2595587.508   1031749.534   6286504.960
10 0 59520  22902.000000  0   -1723481.471   1016701.062   6581003.155
10 0 59520  23022.000000  0    -821858.772    968391.652   6759857.223
10 0 59520  23142.000000  0      92968.846    887293.276   6819947.880
10 0 59520  23262.000000  0    1004481.048    774734.743   6760228.368
10 0 59520  23382.000000  0    1896245.792    632880.058   6581741.494
10 0 59520  23502.000000  0    2752214.237    464687.659   6287602.848
10 0 59520  23622.000000  0    3557009.944    273850.987   5882950.871
10 0 59520  23742.000000  0    4296207.770     64721.094   5374862.247
10 0 59520  23862.000000  0    4956596.707   -157787.269   4772234.144
10 0 59520  23982.000000  0    5526422.676   -388304.474   4085634.211
10 0 59520  24102.000000  0    5995607.044   -621127.463   3327120.031
10 0 59520  24222.000000  0    6355935.850   -850351.333   2510029.041
10 0 59520  24342.000000  0    6601213.330  -1070007.979   1648741.631
10 0 59520  24462.000000  0    6727375.293  -1274208.542    758424.030
10 0 59520  24582.000000  0    6732562.975  -1457286.857   -145244.617
10 0 59520  24702.000000  0    6617151.616  -1613939.709  -1046358.293
10 0 59520  24822.000000  0    6383732.530  -1739359.220  -1929072.729
10 0 59520  24942.000000  0    6037051.301  -1829355.185  -2777892.249
10 0 59520  25062.000000  0    5583902.688  -1880463.760  -3577946.953
10 0 59520  25182.000000  0    5032987.079  -1890039.981  -4315254.880
10 0 59520  25302.000000  0    4394732.794  -1856331.957  -4976964.868
10 0 59520  25422.000000  0    3681087.853  -1778536.070  -5551575.908
10 0 59520  25542.000000  0    2905286.679  -1656831.730  -6029128.169
10 0 59520  25662.000000  0    2081599.608  -1492394.799  -6401364.456
10 0 59520  25782.000000  0    1225068.597  -1287390.001  -6661863.104
10 0 59520  25902.000000  0     351233.005  -1044943.316  -6806137.854
10 0 59520  26022.000000  0    -524148.142   -769094.828  -6831706.701
10 0 59520  26142.000000  0   -1385373.904   -464732.453  -6738129.638
10 0 59520  26262.000000  0   -2217076.919   -137507.199  -6527015.580
10 0 59520  26382.000000  0   -3004491.380    206268.818  -6201996.558
10 0 59520  26502.000000  0   -3733709.640    559739.776  -5768672.300
10 0 59520  26622.000000  0   -4391927.157    915638.182  -5234524.316
10 0 59520  26742.000000  0   -4967669.700   1266428.688  -4608798.044
10 0 59520  26862.000000  0   -5451000.607   1604463.380  -3902355.114
10 0 59520  26982.000000  0   -5833701.429   1922144.413  -3127493.642
10 0 59520  27102.000000  0   -6109422.796   2212089.552  -2297741.158
10 0 59520  27222.000000  0   -6273801.816   2467298.161  -1427621.916
10 0 59520  27342.000000  0   -6324542.097   2681313.678   -532401.966
10 0 59520  27462.000000  0   -6261453.613   2848377.698    372183.526
10 0 59520  27582.000000  0   -6086449.298   2963571.598   1270214.817
10 0 59520  27702.000000  0   -5803498.734   3022942.539   2145876.556
10 0 59520  27822.000000  0   -5418540.013   3023609.467   2983745.260
10 0 59520  27942.000000  0   -4939353.219   2963847.153   3769068.745
10 0 59520  28062.000000  0   -4375397.040   2843145.063   4488032.036
10 0 59520  28182.000000  0   -3737614.321   2662240.714   5128002.179
10 0 59520  28302.000000  0   -3038212.634   2423127.539   5677749.530
10 0 59520  28422.000000  0   -2290423.202   2129036.936   6127642.667
10 0 59520  28542.000000  0   -1508243.889   1784394.273   6469812.071
10 0 59520  28662.000000  0    -706172.379   1394750.585   6698280.859
10 0 59520  28782.000000  0     101063.434    966691.300   6809061.950
10 0 59520  28902.000000  0     898775.153    507724.013   6800223.165
10 0 59520  29022.000000  0    1672579.983     26147.095   6671918.485
10 0 59520  29142.000000  0    2408658.704   -469099.437   6426386.036
10 0 59520  29262.000000  0    3094002.203   -968599.241   6067912.490
10 0 59520  29382.000000  0    3716643.573  -1462637.345   5602763.439
10 0 59520  29502.000000  0    4265871.034  -1941388.782   5039079.270
10 0 59520  29622.000000  0    4732416.781  -2395113.654   4386738.519
10 0 59520  29742.000000  0    5108620.868  -2814355.959   3657190.944
10 0 59520  29862.000000  0    5388565.679  -3190142.053   2863258.933
10 0 59520  29982.000000  0    5568175.340  -3514172.845   2018910.791
10 0 59520  30102.000000  0    5645278.568  -3779006.380   1139012.530
10 0 59520  30222.000000  0    5619634.241  -3978226.198    239060.119
10 0 59520  30342.000000  0    5492917.617  -4106589.674   -665100.856
10 0 59520  30462.000000  0    5268667.940  -4160154.067  -1557563.601
10 0 59520  30582.000000  0    4952198.055  -4136375.098  -2422648.646
10 0 59520  30702.000000  0    4550468.700  -4034177.112  -3245185.893
10 0 59520  30822.000000  0    4071931.839  -3853993.180  -4010784.577
10 0 59520  30942.000000  0    3526346.692  -3597774.210  -4706085.062
10 0 59520  31062.000000  0    2924574.470  -3268967.756  -5318988.378
10 0 59520  31182.000000  0    2278356.671  -2872467.514  -5838858.802
10 0 59520  31302.000000  0    1600083.587  -2414536.816  -6256697.728
10 0 59520  31422.000000  0     902556.327  -1902706.595  -6565290.284
10 0 59520  31542.000000  0     198745.799  -1345648.038  -6759319.615
10 0 59520  31662.000000  0    -498445.046   -753025.212  -6835448.112
10 0 59520  31782.000000  0   -1176412.041   -135329.783  -6792367.725
10 0 59520  31902.000000  0   -1823072.476    496300.484  -6630819.742
10 0 59520  32022.000000  0   -2427075.490   1130277.373  -6353582.866
10 0 59520  32142.000000  0   -2977997.006   1754769.459  -5965430.695
10 0 59520  32262.000000  0   -3466517.950   2357917.940  -5473058.933
99
